ONEWEB-0520             
1 54138U 22138AB  25166.02492687  .00000062  00000+0  12148-3 0  9991
2 54138  87.9213  17.9408 0001882  97.5149 262.6198 13.19725113129263
ONEWEB-0521             
1 54139U 22138AC  25165.98227344  .00000033  00000+0  48878-4 0  9990
2 54139  87.9215  17.9372 0001651  78.7885 281.3433 13.19726729129239
ONEWEB-0522             
1 54140U 22138AD  25165.88591961  .00000158  00000+0  36317-3 0  9992
2 54140  87.9214  17.9574 0001923  88.7874 271.3479 13.19728478128360
ONEWEB-0523             
1 54141U 22138AE  25165.53429042  .00000093  00000+0  19728-3 0  9990
2 54141  87.9259 347.6668 0002202  67.5989 292.5377 13.20772101130774
ONEWEB-0524             
1 54142U 22138AF  25166.20505611  .00000133  00000+0  29479-3 0  9992
2 54142  87.9261 347.5353 0002767  85.6743 274.4706 13.20771788131735
ONEWEB-0525             
1 54143U 22138AG  25166.05651386  .00000070  00000+0  14162-3 0  9990
2 54143  87.9218  17.9425 0001809  95.9268 264.2071 13.19724415129279
ONEWEB-0526             
1 54144U 22138AH  25165.63478729  .00000080  00000+0  16837-3 0  9994
2 54144  87.9213  18.0143 0001876  89.3980 270.7368 13.19726094128327
ONEWEB-0529             
1 54145U 22138AJ  25166.01703053  .00000055  00000+0  10604-3 0  9997
2 54145  87.9221  17.9803 0001865  94.1553 265.9793 13.19726530129263
